{
    "links": {
        "self": "http://www.neowsapp.com/rest/v1/neo/3785692?api_key=iIulBulltgU6a56xZRHN4H3l9WmuAYTsLGpBGhQ2"
    },
    "id": "3785692",
    "neo_reference_id": "3785692",
    "name": "(2017 TL2)",
    "designation": "2017 TL2",
    "nasa_jpl_url": "http://ssd.jpl.nasa.gov/sbdb.cgi?sstr=3785692",
    "absolute_magnitude_h": 27.1,
    "estimated_diameter": {
        "kilometers": {
            "estimated_diameter_min": 0.0101054342,
            "estimated_diameter_max": 0.0225964377
        },
        "meters": {
            "estimated_diameter_min": 10.1054341542,
            "estimated_diameter_max": 22.5964377109
        },
        "miles": {
            "estimated_diameter_min": 0.0062792237,
            "estimated_diameter_max": 0.0140407711
        },
        "feet": {
            "estimated_diameter_min": 33.1543125905,
            "estimated_diameter_max": 74.1352966996
        }
    },
    "is_potentially_hazardous_asteroid": false,
    "close_approach_data": [
        {
            "close_approach_date": "2017-10-07",
            "close_approach_date_full": "2017-Oct-07 20:08",
            "epoch_date_close_approach": 1507406880000,
            "relative_velocity": {
                "kilometers_per_second": "9.2413518298",
                "kilometers_per_hour": "33268.866587242",
                "miles_per_hour": "20671.979908056"
            },
            "miss_distance": {
                "astronomical": "0.0161178644",
                "lunar": "6.2698492516",
                "kilometers": "2411198.183188828",
                "miles": "1498249.0763007064"
            },
            "orbiting_body": "Earth"
        }
    ],
    "orbital_data": {
        "orbit_id": "3",
        "orbit_determination_date": "2017-11-06 06:17:50",
        "first_observation_date": "2017-10-10",
        "last_observation_date": "2017-10-17",
        "data_arc_in_days": 7,
        "observations_used": 27,
        "orbit_uncertainty": "8",
        "minimum_orbit_intersection": ".00803004",
        "jupiter_tisserand_invariant": "3.292",
        "epoch_osculation": "2458038.5",
        "eccentricity": ".5822392677131324",
        "semi_major_axis": "2.367460461340524",
        "inclination": "3.81026371797023",
        "ascending_node_longitude": "196.3037252171544",
        "orbital_period": "1330.523436482041",
        "perihelion_distance": ".9890320159898228",
        "perihelion_argument": "157.4159843379855",
        "aphelion_distance": "3.745888906691226",
        "perihelion_time": "2458018.029810273870",
        "mean_anomaly": "5.538623446492193",
        "mean_motion": ".2705702057769496",
        "equinox": "J2000",
        "orbit_class": {
            "orbit_class_type": "APO",
            "orbit_class_description": "Near-Earth asteroid orbits which cross the Earth’s orbit similar to that of 1862 Apollo",
            "orbit_class_range": "a (semi-major axis) > 1.0 AU; q (perihelion) < 1.017 AU"
        }
    },
    "is_sentry_object": false
}